OBJECT_NAME,OBJECT_ID,EPOCH,MEAN_MOTION,ECCENTRICITY,INCLINATION,RA_OF_ASC_NODE,ARG_OF_PERICENTER,MEAN_ANOMALY,EPHEMERIS_TYPE,CLASSIFICATION_TYPE,NORAD_CAT_ID,ELEMENT_SET_NO,REV_AT_EPOCH,BSTAR,MEAN_MOTION_DOT,MEAN_MOTION_DDOT
SL-8 R/B,1985-006B,2026-07-04T14:41:47.080608,14.37841898,.00192324,74.0454,45.9981,290.5389,98.3927,0,U,15483,999,17083,.83712876E-4,.226E-5,0
SL-12 R/B(2),1985-042D,2026-07-04T07:35:31.343136,14.22009160,.0037082,71.1061,201.3263,302.1875,68.3203,0,U,15772,999,13097,.4654907E-4,.56E-6,0
SL-14 R/B,1985-069B,2026-07-04T12:51:44.987040,14.86530079,.0019291,82.5272,275.0505,160.8460,199.3486,0,U,15945,999,19019,.67203009E-4,.621E-5,0
SL-16 R/B,1985-097B,2026-07-04T11:41:35.323296,14.16614279,.00052617,71.0027,254.6567,73.0383,298.5648,0,U,16182,999,10377,-.72219938E-4,-.192E-5,0
SL-14 R/B,1986-006B,2026-07-04T14:45:43.397568,14.86962751,.00748206,82.5273,149.7127,244.5134,114.8331,0,U,16496,999,16658,.72208089E-4,.705E-5,0
COSMOS 1743,1986-034A,2026-07-04T07:36:15.605856,15.68614241,.00048551,82.5286,310.4985,211.6529,148.4441,0,U,16719,999,19847,.66120816E-3,.75538E-3,0
SL-14 R/B,1986-046B,2026-07-04T15:56:25.130400,14.85685182,.00225833,82.4831,329.6602,197.8411,162.2015,0,U,16792,999,14377,.71914137E-4,.65E-5,0
SL-14 R/B,1986-055B,2026-07-04T12:21:58.302432,14.85735675,.00176366,82.5198,16.8395,308.6619,81.1231,0,U,16882,999,13671,.60805407E-4,.553E-5,0
AJISAI (EGS),1986-061A,2026-07-04T12:08:30.558336,12.44516663,.00111237,50.0093,94.1405,224.6285,313.1050,0,U,16908,999,48254,.38201398E-4,-.92E-6,0
SL-14 R/B,1987-024B,2026-07-04T10:52:26.622624,14.86225799,.00170072,82.5288,343.0201,231.0224,128.9478,0,U,17567,999,10547,.56111865E-4,.518E-5,0
COSMOS 1833,1987-027A,2026-07-04T10:50:26.713248,14.13062216,.00235298,70.9210,80.5815,26.2853,333.9457,0,U,17589,999,2681,.15188267E-3,.236E-5,0
SL-16 R/B,1987-027B,2026-07-04T12:13:17.547168,14.17175165,.0007065,71.0032,30.3260,293.5769,66.4612,0,U,17590,999,3189,-.18249535E-4,-.85E-6,0
SL-14 R/B,1987-038B,2026-07-04T10:34:45.636672,14.85456205,.00203323,82.5003,186.8199,135.4072,224.8784,0,U,17912,999,9656,.49154331E-4,.45E-5,0
COSMOS 1844,1987-041A,2026-07-04T06:58:26.848128,14.14574010,.00319909,70.8981,148.2299,210.6881,149.2371,0,U,17973,999,2007,.238256E-3,.411E-5,0
SL-14 R/B,1987-055B,2026-07-04T03:03:55.982592,14.85722047,.00203094,82.4981,239.2599,352.9326,7.1601,0,U,18153,999,8722,.44077385E-4,.408E-5,0
COSMOS 1867,1987-060A,2026-07-04T09:19:58.001664,14.31517708,.00169047,65.0119,339.8834,282.1202,77.7989,0,U,18187,999,3664,.22304894E-4,-.41E-6,0
SL-14 R/B,1988-001B,2026-07-04T11:13:30.744480,14.85622310,.00171973,82.5131,85.5168,207.8153,152.2145,0,U,18749,999,5936,.61813816E-4,.56E-5,0
COSMOS 1933,1988-020A,2026-07-03T20:06:59.921856,15.18825591,.00051869,82.5136,135.9455,135.5935,224.5716,0,U,18958,999,6785,.1916594E-3,.402E-4,0
SL-3 R/B,1988-032B,2026-07-04T09:57:37.074816,15.20969665,.00253914,97.5266,168.4400,182.5755,177.5353,0,U,19046,999,6984,.23661629E-3,.5215E-4,0
SL-16 R/B,1988-039B,2026-07-04T09:13:03.963360,14.19631429,.00212162,71.0128,181.7946,166.6867,193.4822,0,U,19120,999,97494,.87896598E-4,.138E-5,0
COSMOS 1953,1988-050A,2026-07-04T13:05:16.286496,15.30228712,.00122555,82.5065,40.5261,73.5807,286.6779,0,U,19210,999,5564,.46411245E-3,.13639E-3,0
SL-8 R/B,1988-053B,2026-07-04T10:42:13.529952,14.38974501,.0019364,74.0472,257.2442,46.2608,324.8442,0,U,19257,999,99339,.82690643E-4,.229E-5,0
COSMOS 1975,1988-093A,2026-07-04T11:48:44.539488,15.29563036,.00124637,82.5195,0.2904,115.5940,244.6589,0,U,19573,999,3725,.42966635E-3,.12373E-3,0
SL-14 R/B,1988-093B,2026-07-04T13:43:14.569824,14.85755449,.00209639,82.5320,292.3244,15.6580,355.2194,0,U,19574,999,1837,.62621636E-4,.57E-5,0
SL-16 R/B,1988-102B,2026-07-04T12:32:29.196096,14.16169680,.00148725,71.0001,265.6637,201.5085,158.5415,0,U,19650,999,94343,.5781566E-5,-.36E-6,0
INTERCOSMOS 24,1989-080A,2026-07-04T07:55:07.465728,12.59685332,.11877617,82.6048,28.4886,22.1591,342.6699,0,U,20261,999,68148,.20015418E-3,.699E-5,0
SL-14 R/B,1989-080C,2026-07-04T10:36:35.712864,12.50576599,.12284122,82.5942,98.2221,277.9028,68.4692,0,U,20262,999,67474,.49227193E-4,.163E-5,0
DELTA 1 R/B,1989-089B,2026-07-04T11:05:56.162976,14.50742796,.0070434,97.0634,14.2561,113.1373,247.7267,0,U,20323,999,91266,.10481194E-3,.391E-5,0
ARIANE 40 R/B,1990-005H,2026-07-04T10:00:05.408064,14.39936741,.00095528,98.2950,242.4965,206.9095,153.1599,0,U,20443,999,90960,.10792948E-3,.297E-5,0
DELTA 2 R/B(1),1990-008B,2026-07-04T05:31:19.325856,15.71671791,.00636623,35.6001,121.4149,274.1290,85.2177,0,U,20453,999,94438,.88354466E-3,.135684E-2,0
