SL-8 R/B                
1 15483U 85006B   26185.61235047  .00000226  00000+0  83713-4 0  9995
2 15483  74.0454  45.9981 0019232 290.5389  98.3927 14.37841898170836
SL-12 R/B(2)            
1 15772U 85042D   26185.31633499  .00000056  00000+0  46549-4 0  9993
2 15772  71.1061 201.3263 0037082 302.1875  68.3203 14.22009160130970
SL-14 R/B               
1 15945U 85069B   26185.53593735  .00000621  00000+0  67203-4 0  9994
2 15945  82.5272 275.0505 0019291 160.8460 199.3486 14.86530079190196
SL-16 R/B               
1 16182U 85097B   26185.48721439 -.00000192  00000+0 -72220-4 0  9997
2 16182  71.0027 254.6567 0005261  73.0383 298.5648 14.16614279103771
SL-14 R/B               
1 16496U 86006B   26185.61508562  .00000705  00000+0  72208-4 0  9995
2 16496  82.5273 149.7127 0074820 244.5134 114.8331 14.86962751166586
COSMOS 1743             
1 16719U 86034A   26185.31684729  .00075538  00000+0  66121-3 0  9993
2 16719  82.5286 310.4985 0004855 211.6529 148.4441 15.68614241198478
SL-14 R/B               
1 16792U 86046B   26185.66417975  .00000650  00000+0  71914-4 0  9992
2 16792  82.4831 329.6602 0022583 197.8411 162.2015 14.85685182143779
SL-14 R/B               
1 16882U 86055B   26185.51525813  .00000553  00000+0  60805-4 0  9996
2 16882  82.5198  16.8395 0017636 308.6619  81.1231 14.85735675136713
AJISAI (EGS)            
1 16908U 86061A   26185.50590924 -.00000092  00000+0  38201-4 0  9990
2 16908  50.0093  94.1405 0011123 224.6285 313.1050 12.44516663482547
SL-14 R/B               
1 17567U 87024B   26185.45308591  .00000518  00000+0  56112-4 0  9996
2 17567  82.5288 343.0201 0017007 231.0224 128.9478 14.86225799105472
COSMOS 1833             
1 17589U 87027A   26185.45169807  .00000236  00000+0  15188-3 0  9992
2 17589  70.9210  80.5815 0023529  26.2853 333.9457 14.13062216 26812
SL-16 R/B               
1 17590U 87027B   26185.50923087 -.00000085  00000+0 -18250-4 0  9996
2 17590  71.0032  30.3260 0007065 293.5769  66.4612 14.17175165 31894
SL-14 R/B               
1 17912U 87038B   26185.44080598  .00000450  00000+0  49154-4 0  9991
2 17912  82.5003 186.8199 0020332 135.4072 224.8784 14.85456205 96565
COSMOS 1844             
1 17973U 87041A   26185.29058852  .00000411  00000+0  23826-3 0  9997
2 17973  70.8981 148.2299 0031990 210.6881 149.2371 14.14574010 20078
SL-14 R/B               
1 18153U 87055B   26185.12773128  .00000408  00000+0  44077-4 0  9993
2 18153  82.4981 239.2599 0020309 352.9326   7.1601 14.85722047 87229
COSMOS 1867             
1 18187U 87060A   26185.38886576 -.00000041  00000+0  22305-4 0  9990
2 18187  65.0119 339.8834 0016904 282.1202  77.7989 14.31517708 36647
SL-14 R/B               
1 18749U 88001B   26185.46771695  .00000560  00000+0  61814-4 0  9997
2 18749  82.5131  85.5168 0017197 207.8153 152.2145 14.85622310 59360
COSMOS 1933             
1 18958U 88020A   26184.83819354  .00004020  00000+0  19166-3 0  9992
2 18958  82.5136 135.9455 0005186 135.5935 224.5716 15.18825591 67859
SL-3 R/B                
1 19046U 88032B   26185.41501244  .00005215  00000+0  23662-3 0  9998
2 19046  97.5266 168.4400 0025391 182.5755 177.5353 15.20969665 69840
SL-16 R/B               
1 19120U 88039B   26185.38407365  .00000138  00000+0  87897-4 0  9993
2 19120  71.0128 181.7946 0021216 166.6867 193.4822 14.19631429974944
COSMOS 1953             
1 19210U 88050A   26185.54532739  .00013639  00000+0  46411-3 0  9994
2 19210  82.5065  40.5261 0012255  73.5807 286.6779 15.30228712 55640
SL-8 R/B                
1 19257U 88053B   26185.44598993  .00000229  00000+0  82691-4 0  9993
2 19257  74.0472 257.2442 0019364  46.2608 324.8442 14.38974501993397
COSMOS 1975             
1 19573U 88093A   26185.49218217  .00012373  00000+0  42967-3 0  9995
2 19573  82.5195   0.2904 0012463 115.5940 244.6589 15.29563036 37258
SL-14 R/B               
1 19574U 88093B   26185.57169641  .00000570  00000+0  62622-4 0  9998
2 19574  82.5320 292.3244 0020963  15.6580 355.2194 14.85755449 18379
SL-16 R/B               
1 19650U 88102B   26185.52256014 -.00000036  00000+0  57816-5 0  9998
2 19650  71.0001 265.6637 0014872 201.5085 158.5415 14.16169680943434
INTERCOSMOS 24          
1 20261U 89080A   26185.32994752  .00000699  00000+0  20015-3 0  9993
2 20261  82.6048  28.4886 1187761  22.1591 342.6699 12.59685332681488
SL-14 R/B               
1 20262U 89080C   26185.44208001  .00000163  00000+0  49227-4 0  9995
2 20262  82.5942  98.2221 1228412 277.9028  68.4692 12.50576599674745
DELTA 1 R/B             
1 20323U 89089B   26185.46245559  .00000391  00000+0  10481-3 0  9995
2 20323  97.0634  14.2561 0070434 113.1373 247.7267 14.50742796912661
ARIANE 40 R/B           
1 20443U 90005H   26185.41672926  .00000297  00000+0  10793-3 0  9996
2 20443  98.2950 242.4965 0009552 206.9095 153.1599 14.39936741909606
DELTA 2 R/B(1)          
1 20453U 90008B   26185.23008479  .00135684  00000+0  88354-3 0  9993
2 20453  35.6001 121.4149 0063662 274.1290  85.2177 15.71671791944384
